STARLINK-31290          
1 59085U 24041M   26068.01757978 -.00001508  00000+0 -45297-4 0  9990
2 59085  43.0032 300.2318 0001282 262.0097  98.0610 15.27576822114473
FLOCK 4G-15             
1 62678U 25009BX  26068.71779869  .00012647  00000+0  47575-3 0  9991
2 62678  97.4054 151.1927 0003699 316.8208  43.2740 15.27266411121358
